{"type":"FeatureCollection","features":[{"type":"Feature","id":25501,"geometry":{"type":"Point","coordinates":[55.29,25.27]},"properties":{"station_id":25501,"station_name":"Al Shindagha","route_name":"N/A","valid_from":"2020-01-01","valid_until":"2025-01-01"}},{"type":"Feature","id":260,"geometry":{"type":"Point","coordinates":[55.312255,25.257051]},"properties":{"station_id":260,"station_name":"Al Seef Marine Transport Station","route_name":"Water Bus","valid_from":"2020-04-24","valid_until":"2036-01-01"}},{"type":"Feature","id":28001,"geometry":{"type":"Point","coordinates":[55.12,25.13]},"properties":{"station_id":28001,"station_name":"Atlantis","route_name":"N/A","valid_from":"2020-01-01","valid_until":"2025-01-01"}},{"type":"Feature","id":27701,"geometry":{"type":"Point","coordinates":[55.29,25.28]},"properties":{"station_id":27701,"station_name":"Port Rashid","route_name":"N/A","valid_from":"2020-01-01","valid_until":"2025-01-01"}},{"type":"Feature","id":262,"geometry":{"type":"Point","coordinates":[55.134878,25.075079]},"properties":{"station_id":262,"station_name":"Marina Promenade Waterbus Station","route_name":"Water Bus","valid_from":"2020-04-24","valid_until":"2036-01-01"}},{"type":"Feature","id":27301,"geometry":{"type":"Point","coordinates":[55.34,25.22]},"properties":{"station_id":27301,"station_name":"Al Jadaf","route_name":"BM2,DC1","valid_from":"2020-01-01","valid_until":"2025-01-01"}},{"type":"Feature","id":28301,"geometry":{"type":"Point","coordinates":[55.14,25.1]},"properties":{"station_id":28301,"station_name":"One & Only The Palm","route_name":"N/A","valid_from":"2020-01-01","valid_until":"2025-01-01"}},{"type":"Feature","id":27601,"geometry":{"type":"Point","coordinates":[55.19,25.14]},"properties":{"station_id":27601,"station_name":"Jumeirah Beach Hotel","route_name":"N/A","valid_from":"2020-01-01","valid_until":"2025-01-01"}},{"type":"Feature","id":28101,"geometry":{"type":"Point","coordinates":[55.14,25.09]},"properties":{"station_id":28101,"station_name":"Mina Seyahi","route_name":"N/A","valid_from":"2020-01-01","valid_until":"2025-01-01"}},{"type":"Feature","id":27401,"geometry":{"type":"Point","coordinates":[55.26,25.23]},"properties":{"station_id":27401,"station_name":"La Mer Marine Transport Station","route_name":"FR3","valid_from":"2020-01-01","valid_until":"2025-01-01"}},{"type":"Feature","id":26601,"geometry":{"type":"Point","coordinates":[55.15,25.09]},"properties":{"station_id":26601,"station_name":"Marina Walk","route_name":"BM1","valid_from":"2020-01-01","valid_until":"2025-01-01"}},{"type":"Feature","id":30601,"geometry":{"type":"Point","coordinates":[55.27,25.18]},"properties":{"station_id":30601,"station_name":"Marasi","route_name":"DC2","valid_from":"2020-01-01","valid_until":"2025-01-01"}},{"type":"Feature","id":28201,"geometry":{"type":"Point","coordinates":[55.15,25.1]},"properties":{"station_id":28201,"station_name":"One & Only Royal Mirage","route_name":"N/A","valid_from":"2020-01-01","valid_until":"2025-01-01"}},{"type":"Feature","id":29401,"geometry":{"type":"Point","coordinates":[55.23,25.2]},"properties":{"station_id":29401,"station_name":"Dubai Water Canal","route_name":"DC1,FR1","valid_from":"2020-01-01","valid_until":"2025-01-01"}},{"type":"Feature","id":29801,"geometry":{"type":"Point","coordinates":[55.25,25.19]},"properties":{"station_id":29801,"station_name":"Sheikh Zayed Road","route_name":"DC1,DC2","valid_from":"2020-01-01","valid_until":"2025-01-01"}},{"type":"Feature","id":29701,"geometry":{"type":"Point","coordinates":[55.25,25.19]},"properties":{"station_id":29701,"station_name":"Safa Park","route_name":"N/A","valid_from":"2020-01-01","valid_until":"2025-01-01"}},{"type":"Feature","id":30701,"geometry":{"type":"Point","coordinates":[55.36,25.33]},"properties":{"station_id":30701,"station_name":"Sharjah Aquarium Marine Station","route_name":"FR5","valid_from":"2020-01-01","valid_until":"2025-01-01"}},{"type":"Feature","id":29901,"geometry":{"type":"Point","coordinates":[55.26,25.18]},"properties":{"station_id":29901,"station_name":"Business Bay","route_name":"N/A","valid_from":"2020-01-01","valid_until":"2025-01-01"}},{"type":"Feature","id":256,"geometry":{"type":"Point","coordinates":[55.298159,25.267171]},"properties":{"station_id":256,"station_name":"Dubai Old Souq Marine Transport Station","route_name":"Water Bus","valid_from":"2020-04-24","valid_until":"2036-01-01"}},{"type":"Feature","id":29501,"geometry":{"type":"Point","coordinates":[55.24,25.19]},"properties":{"station_id":29501,"station_name":"Jumeirah","route_name":"N/A","valid_from":"2020-01-01","valid_until":"2025-01-01"}},{"type":"Feature","id":28901,"geometry":{"type":"Point","coordinates":[55.35,25.31]},"properties":{"station_id":28901,"station_name":"Al Mamzar","route_name":"N/A","valid_from":"2020-01-01","valid_until":"2025-01-01"}},{"type":"Feature","id":26201,"geometry":{"type":"Point","coordinates":[55.13,25.08]},"properties":{"station_id":26201,"station_name":"Marina Promenade","route_name":"BM1","valid_from":"2020-01-01","valid_until":"2025-01-01"}},{"type":"Feature","id":99998,"geometry":{"type":"Point","coordinates":[55.31,25.07]},"properties":{"station_id":99998,"station_name":"Global Village","route_name":"N/A","valid_from":"2020-01-01","valid_until":"2025-01-01"}},{"type":"Feature","id":27201,"geometry":{"type":"Point","coordinates":[55.34,25.23]},"properties":{"station_id":27201,"station_name":"Al Boom Tourist Village","route_name":"N/A","valid_from":"2020-01-01","valid_until":"2025-01-01"}},{"type":"Feature","id":30401,"geometry":{"type":"Point","coordinates":[55.15,25.13]},"properties":{"station_id":30401,"station_name":"Anantara Dubai Palm Jumeirah","route_name":"N/A","valid_from":"2020-01-01","valid_until":"2025-01-01"}},{"type":"Feature","id":25701,"geometry":{"type":"Point","coordinates":[55.29,25.26]},"properties":{"station_id":25701,"station_name":"Bur Dubai","route_name":"CR1","valid_from":"2020-01-01","valid_until":"2025-01-01"}},{"type":"Feature","id":26001,"geometry":{"type":"Point","coordinates":[55.31,25.26]},"properties":{"station_id":26001,"station_name":"Al Seef","route_name":"CR6","valid_from":"2020-01-01","valid_until":"2025-01-01"}},{"type":"Feature","id":28801,"geometry":{"type":"Point","coordinates":[55.3,25.26]},"properties":{"station_id":28801,"station_name":"Dubai Old Souq","route_name":"CR2,CR3","valid_from":"2020-01-01","valid_until":"2025-01-01"}},{"type":"Feature","id":26401,"geometry":{"type":"Point","coordinates":[55.29,25.27]},"properties":{"station_id":26401,"station_name":"Al Ghubaiba","route_name":"FR1,FR3,FR5","valid_from":"2020-01-01","valid_until":"2025-01-01"}},{"type":"Feature","id":26701,"geometry":{"type":"Point","coordinates":[55.26,25.18]},"properties":{"station_id":26701,"station_name":"Godolphin Marine Transport Station","route_name":"DC1","valid_from":"2020-01-01","valid_until":"2025-01-01"}},{"type":"Feature","id":26901,"geometry":{"type":"Point","coordinates":[55.3,25.27]},"properties":{"station_id":26901,"station_name":"Al Fahidi","route_name":"CR5","valid_from":"2020-01-01","valid_until":"2025-01-01"}},{"type":"Feature","id":26801,"geometry":{"type":"Point","coordinates":[55.33,25.24]},"properties":{"station_id":26801,"station_name":"Dubai Creek Golf & Yacht Club","route_name":"N/A","valid_from":"2020-01-01","valid_until":"2025-01-01"}},{"type":"Feature","id":25801,"geometry":{"type":"Point","coordinates":[55.3,25.27]},"properties":{"station_id":25801,"station_name":"Al Sabkha","route_name":"CR2,CR5","valid_from":"2020-01-01","valid_until":"2025-01-01"}},{"type":"Feature","id":25601,"geometry":{"type":"Point","coordinates":[55.3,25.27]},"properties":{"station_id":25601,"station_name":"Deira Old Souq","route_name":"CR1","valid_from":"2020-01-01","valid_until":"2025-01-01"}},{"type":"Feature","id":30201,"geometry":{"type":"Point","coordinates":[55.3,25.19]},"properties":{"station_id":30201,"station_name":"Dubai Design District","route_name":"DC1","valid_from":"2020-01-01","valid_until":"2025-01-01"}},{"type":"Feature","id":28501,"geometry":{"type":"Point","coordinates":[55.13,25.14]},"properties":{"station_id":28501,"station_name":"Sofitel Resort, The Palm","route_name":"N/A","valid_from":"2020-01-01","valid_until":"2025-01-01"}},{"type":"Feature","id":99999,"geometry":{"type":"Point","coordinates":[55.27,25.19]},"properties":{"station_id":99999,"station_name":"Burj Plaza","route_name":"N/A","valid_from":"2020-01-01","valid_until":"2025-01-01"}},{"type":"Feature","id":29601,"geometry":{"type":"Point","coordinates":[55.24,25.19]},"properties":{"station_id":29601,"station_name":"Al Wasl","route_name":"N/A","valid_from":"2020-01-01","valid_until":"2025-01-01"}},{"type":"Feature","id":30301,"geometry":{"type":"Point","coordinates":[55.32,25.29]},"properties":{"station_id":30301,"station_name":"Waterfront Market","route_name":"N/A","valid_from":"2020-01-01","valid_until":"2025-01-01"}},{"type":"Feature","id":25901,"geometry":{"type":"Point","coordinates":[55.31,25.26]},"properties":{"station_id":25901,"station_name":"Baniyas","route_name":"CR3,CR6","valid_from":"2020-01-01","valid_until":"2025-01-01"}},{"type":"Feature","id":27801,"geometry":{"type":"Point","coordinates":[55.16,25.12]},"properties":{"station_id":27801,"station_name":"Safouh","route_name":"N/A","valid_from":"2020-01-01","valid_until":"2025-01-01"}},{"type":"Feature","id":27101,"geometry":{"type":"Point","coordinates":[55.32,25.25]},"properties":{"station_id":27101,"station_name":"Creek Park - B","route_name":"N/A","valid_from":"2020-01-01","valid_until":"2025-01-01"}},{"type":"Feature","id":266,"geometry":{"type":"Point","coordinates":[55.147698,25.084783]},"properties":{"station_id":266,"station_name":"Marina Walk Waterbus Station","route_name":"Water Bus","valid_from":"2020-04-24","valid_until":"2036-01-01"}},{"type":"Feature","id":30501,"geometry":{"type":"Point","coordinates":[55.28,25.19]},"properties":{"station_id":30501,"station_name":"Al Wajeha Al Maeyah","route_name":"DC1,DC2","valid_from":"2020-01-01","valid_until":"2025-01-01"}},{"type":"Feature","id":259,"geometry":{"type":"Point","coordinates":[55.311656,25.262572]},"properties":{"station_id":259,"station_name":"Baniyas Marine Transport Station","route_name":"Water Bus","valid_from":"2020-04-24","valid_until":"2036-01-01"}},{"type":"Feature","id":265,"geometry":{"type":"Point","coordinates":[55.137909,25.075641]},"properties":{"station_id":265,"station_name":"Marina Mall Waterbus Station","route_name":"Water Bus","valid_from":"2020-04-24","valid_until":"2036-01-01"}},{"type":"Feature","id":31101,"geometry":{"type":"Point","coordinates":[55.31,25.07]},"properties":{"station_id":31101,"station_name":"Global Village","route_name":"N/A","valid_from":"2020-01-01","valid_until":"2025-01-01"}},{"type":"Feature","id":27501,"geometry":{"type":"Point","coordinates":[55.29,25.19]},"properties":{"station_id":27501,"station_name":"Jumeirah Beach Park","route_name":"N/A","valid_from":"2020-01-01","valid_until":"2025-01-01"}},{"type":"Feature","id":27001,"geometry":{"type":"Point","coordinates":[55.32,25.25]},"properties":{"station_id":27001,"station_name":"Creek Park - A","route_name":"N/A","valid_from":"2020-01-01","valid_until":"2025-01-01"}},{"type":"Feature","id":261,"geometry":{"type":"Point","coordinates":[55.145323,25.085307]},"properties":{"station_id":261,"station_name":"Marina Terrece Waterbus Station","route_name":"Water Bus","valid_from":"2020-04-24","valid_until":"2036-01-01"}},{"type":"Feature","id":28401,"geometry":{"type":"Point","coordinates":[55.15,25.12]},"properties":{"station_id":28401,"station_name":"Rixos Hotel","route_name":"N/A","valid_from":"2020-01-01","valid_until":"2025-01-01"}},{"type":"Feature","id":26101,"geometry":{"type":"Point","coordinates":[55.15,25.09]},"properties":{"station_id":26101,"station_name":"Marina Terrace","route_name":"BM1","valid_from":"2020-01-01","valid_until":"2025-01-01"}},{"type":"Feature","id":99997,"geometry":{"type":"Point","coordinates":[55.27,25.19]},"properties":{"station_id":99997,"station_name":"Burj Plaza","route_name":"N/A","valid_from":"2020-01-01","valid_until":"2025-01-01"}},{"type":"Feature","id":26501,"geometry":{"type":"Point","coordinates":[55.14,25.08]},"properties":{"station_id":26501,"station_name":"Dubai Marina Mall","route_name":"FR1,FR4","valid_from":"2020-01-01","valid_until":"2025-01-01"}},{"type":"Feature","id":26301,"geometry":{"type":"Point","coordinates":[55.35,25.22]},"properties":{"station_id":26301,"station_name":"Dubai Festival City","route_name":"BM2","valid_from":"2020-01-01","valid_until":"2025-01-01"}},{"type":"Feature","id":30101,"geometry":{"type":"Point","coordinates":[55.28,25.2]},"properties":{"station_id":30101,"station_name":"Burj Khalifa Lake","route_name":"N/A","valid_from":"2020-01-01","valid_until":"2025-01-01"}},{"type":"Feature","id":28701,"geometry":{"type":"Point","coordinates":[55.14,25.08]},"properties":{"station_id":28701,"station_name":"Marina Mall-WB","route_name":"BM1","valid_from":"2020-01-01","valid_until":"2025-01-01"}},{"type":"Feature","id":28601,"geometry":{"type":"Point","coordinates":[55.15,25.13]},"properties":{"station_id":28601,"station_name":"Waldorf Astoria","route_name":"N/A","valid_from":"2020-01-01","valid_until":"2025-01-01"}},{"type":"Feature","id":27901,"geometry":{"type":"Point","coordinates":[55.02,24.99]},"properties":{"station_id":27901,"station_name":"Jebel Ali Golf Resort","route_name":"N/A","valid_from":"2020-01-01","valid_until":"2025-01-01"}}]}