{"type":"FeatureCollection","features":[{"type":"Feature","id":150,"geometry":{"type":"Point","coordinates":[55.190931,25.114809]},"properties":{"location_id":150,"location_name_english":"Mashreq Metro Station","line_name":"Red Metro line","station_opening_date":"2009-09-09","zone_id":2}},{"type":"Feature","id":173,"geometry":{"type":"Point","coordinates":[55.288953,25.265085]},"properties":{"location_id":173,"location_name_english":"Al Ghubaiba Metro Station","line_name":"Green Metro line","station_opening_date":"2009-09-09","zone_id":6}},{"type":"Feature","id":162,"geometry":{"type":"Point","coordinates":[55.375009,25.269928]},"properties":{"location_id":162,"location_name_english":"Dubai Airport Free Zone Metro Station","line_name":"Green Metro line","station_opening_date":"2009-09-09","zone_id":5}},{"type":"Feature","id":174,"geometry":{"type":"Point","coordinates":[55.297558,25.258301]},"properties":{"location_id":174,"location_name_english":"Al Fahidi  Metro Station","line_name":"Green Metro line","station_opening_date":"2009-09-09","zone_id":6}},{"type":"Feature","id":134,"geometry":{"type":"Point","coordinates":[55.324122,25.263261]},"properties":{"location_id":134,"location_name_english":"Al Rigga Metro Station","line_name":"Red Metro line","station_opening_date":"2009-09-09","zone_id":5}},{"type":"Feature","id":156,"geometry":{"type":"Point","coordinates":[55.117527,25.046725]},"properties":{"location_id":156,"location_name_english":"Ibn Battuta Metro Station","line_name":"Red Metro line","station_opening_date":"2009-09-09","zone_id":2}},{"type":"Feature","id":175,"geometry":{"type":"Point","coordinates":[55.304252,25.254855]},"properties":{"location_id":175,"location_name_english":"BurJuman Metro Station","line_name":"Green Metro line","station_opening_date":"2009-09-09","zone_id":6}},{"type":"Feature","id":155,"geometry":{"type":"Point","coordinates":[55.127173,25.057853]},"properties":{"location_id":155,"location_name_english":"Jabal Ali Metro Station","line_name":"Red Metro line","station_opening_date":"2009-09-09","zone_id":2}},{"type":"Feature","id":177,"geometry":{"type":"Point","coordinates":[55.322866,25.230903]},"properties":{"location_id":177,"location_name_english":"Dubai Healthcare City Metro Station","line_name":"Green Metro line","station_opening_date":"2009-09-09","zone_id":6}},{"type":"Feature","id":184,"geometry":{"type":"Point","coordinates":[55.163351,25.017796]},"properties":{"location_id":184,"location_name_english":"Jumeirah Golf Estates Metro Station","line_name":"Red Metro line","station_opening_date":"2021-01-01","zone_id":3}},{"type":"Feature","id":165,"geometry":{"type":"Point","coordinates":[55.352764,25.277667]},"properties":{"location_id":165,"location_name_english":"Al Qiyadah Metro Station","line_name":"Green Metro line","station_opening_date":"2009-09-09","zone_id":5}},{"type":"Feature","id":137,"geometry":{"type":"Point","coordinates":[55.298195,25.244493]},"properties":{"location_id":137,"location_name_english":"ADCB Metro Station","line_name":"Red Metro line","station_opening_date":"2009-09-09","zone_id":6}},{"type":"Feature","id":161,"geometry":{"type":"Point","coordinates":[55.387476,25.262659]},"properties":{"location_id":161,"location_name_english":"Al Qusais  Metro Station","line_name":"Green Metro line","station_opening_date":"2009-09-09","zone_id":5}},{"type":"Feature","id":183,"geometry":{"type":"Point","coordinates":[55.152194,25.030451]},"properties":{"location_id":183,"location_name_english":"Al Furjan Metro Station","line_name":"Red Metro line","station_opening_date":"2021-01-01","zone_id":2}},{"type":"Feature","id":138,"geometry":{"type":"Point","coordinates":[55.292131,25.233496]},"properties":{"location_id":138,"location_name_english":"Al Jafiliya Metro Station","line_name":"Red Metro line","station_opening_date":"2009-09-09","zone_id":6}},{"type":"Feature","id":135,"geometry":{"type":"Point","coordinates":[55.313902,25.266335]},"properties":{"location_id":135,"location_name_english":"Union  Metro Station","line_name":"Red Metro line","station_opening_date":"2009-09-09","zone_id":5}},{"type":"Feature","id":172,"geometry":{"type":"Point","coordinates":[55.293727,25.268862]},"properties":{"location_id":172,"location_name_english":"Al Ras Metro Station","line_name":"Green Metro line","station_opening_date":"2009-09-09","zone_id":5}},{"type":"Feature","id":170,"geometry":{"type":"Point","coordinates":[55.307602,25.269415]},"properties":{"location_id":170,"location_name_english":"Baniyas Square Metro Station","line_name":"Green Metro line","station_opening_date":"2009-09-09","zone_id":5}},{"type":"Feature","id":158,"geometry":{"type":"Point","coordinates":[55.095697,25.001291]},"properties":{"location_id":158,"location_name_english":"Danube Metro Station","line_name":"Red Metro line","station_opening_date":"2009-09-09","zone_id":1}},{"type":"Feature","id":148,"geometry":{"type":"Point","coordinates":[55.207898,25.126721]},"properties":{"location_id":148,"location_name_english":"First Abu Dhabi Bank Metro Station","line_name":"Red Metro line","station_opening_date":"2009-09-09","zone_id":2}},{"type":"Feature","id":176,"geometry":{"type":"Point","coordinates":[55.315956,25.243667]},"properties":{"location_id":176,"location_name_english":"Oud Metha Metro Station","line_name":"Green Metro line","station_opening_date":"2009-09-09","zone_id":6}},{"type":"Feature","id":154,"geometry":{"type":"Point","coordinates":[55.138672,25.070824]},"properties":{"location_id":154,"location_name_english":"DMCC Metro Station","line_name":"Red Metro line","station_opening_date":"2009-09-09","zone_id":2}},{"type":"Feature","id":164,"geometry":{"type":"Point","coordinates":[55.361579,25.277802]},"properties":{"location_id":164,"location_name_english":"Stadium Metro Station","line_name":"Green Metro line","station_opening_date":"2009-09-09","zone_id":5}},{"type":"Feature","id":160,"geometry":{"type":"Point","coordinates":[55.401007,25.254805]},"properties":{"location_id":160,"location_name_english":"Etisalat Metro Station","line_name":"Green Metro line","station_opening_date":"2009-09-09","zone_id":5}},{"type":"Feature","id":151,"geometry":{"type":"Point","coordinates":[55.173781,25.102095]},"properties":{"location_id":151,"location_name_english":"Dubai Internet City  Metro Station","line_name":"Red Metro line","station_opening_date":"2009-09-09","zone_id":2}},{"type":"Feature","id":140,"geometry":{"type":"Point","coordinates":[55.27982,25.217214]},"properties":{"location_id":140,"location_name_english":"Emirates Towers Metro Station","line_name":"Red Metro line","station_opening_date":"2009-09-09","zone_id":6}},{"type":"Feature","id":157,"geometry":{"type":"Point","coordinates":[55.101247,25.02629]},"properties":{"location_id":157,"location_name_english":"Energy  Metro Station","line_name":"Red Metro line","station_opening_date":"2009-09-09","zone_id":2}},{"type":"Feature","id":163,"geometry":{"type":"Point","coordinates":[55.36934,25.273273]},"properties":{"location_id":163,"location_name_english":"Al Nahda Metro Station","line_name":"Green Metro line","station_opening_date":"2009-09-09","zone_id":5}},{"type":"Feature","id":143,"geometry":{"type":"Point","coordinates":[55.260418,25.191274]},"properties":{"location_id":143,"location_name_english":"Business Bay Metro Station","line_name":"Red Metro line","station_opening_date":"2009-09-09","zone_id":6}},{"type":"Feature","id":131,"geometry":{"type":"Point","coordinates":[55.352474,25.248427]},"properties":{"location_id":131,"location_name_english":"Airport Terminal 1 Metro Station","line_name":"Red Metro line","station_opening_date":"2009-09-09","zone_id":5}},{"type":"Feature","id":166,"geometry":{"type":"Point","coordinates":[55.346267,25.275241]},"properties":{"location_id":166,"location_name_english":"Abu Hail Metro Station","line_name":"Green Metro line","station_opening_date":"2009-09-09","zone_id":5}},{"type":"Feature","id":136,"geometry":{"type":"Point","coordinates":[55.304252,25.254855]},"properties":{"location_id":136,"location_name_english":"BurJuman Metro Station","line_name":"Red Metro line","station_opening_date":"2009-09-09","zone_id":6}},{"type":"Feature","id":153,"geometry":{"type":"Point","coordinates":[55.147522,25.079929]},"properties":{"location_id":153,"location_name_english":"DAMAC Properties Metro Station","line_name":"Red Metro line","station_opening_date":"2009-09-09","zone_id":2}},{"type":"Feature","id":187,"geometry":{"type":"Point","coordinates":[55.146201,24.963368]},"properties":{"location_id":187,"location_name_english":"EXPO Metro Station","line_name":"Red Metro line","station_opening_date":"2021-01-01","zone_id":1}},{"type":"Feature","id":178,"geometry":{"type":"Point","coordinates":[55.333674,25.224977]},"properties":{"location_id":178,"location_name_english":"Al Jadaf Metro Station","line_name":"Green Metro line","station_opening_date":"2009-09-09","zone_id":6}},{"type":"Feature","id":130,"geometry":{"type":"Point","coordinates":[55.359525,25.245012]},"properties":{"location_id":130,"location_name_english":"Airport Terminal 3 Metro Station","line_name":"Red Metro line","station_opening_date":"2009-09-09","zone_id":5}},{"type":"Feature","id":169,"geometry":{"type":"Point","coordinates":[55.313902,25.266335]},"properties":{"location_id":169,"location_name_english":"Union  (Green Line ) Metro Station","line_name":"Green Metro line","station_opening_date":"2009-09-09","zone_id":5}},{"type":"Feature","id":182,"geometry":{"type":"Point","coordinates":[55.145318,25.035224]},"properties":{"location_id":182,"location_name_english":"Discovery Gardens Metro Station","line_name":"Red Metro line","station_opening_date":"2021-01-01","zone_id":2}},{"type":"Feature","id":185,"geometry":{"type":"Point","coordinates":[55.155841,25.005796]},"properties":{"location_id":185,"location_name_english":"Dubai Investment Park Metro Station","line_name":"Red Metro line","station_opening_date":"2021-01-01","zone_id":1}},{"type":"Feature","id":167,"geometry":{"type":"Point","coordinates":[55.332983,25.270903]},"properties":{"location_id":167,"location_name_english":"Abu Baker Al Siddique Metro Station","line_name":"Green Metro line","station_opening_date":"2009-09-09","zone_id":5}},{"type":"Feature","id":141,"geometry":{"type":"Point","coordinates":[55.275586,25.21103]},"properties":{"location_id":141,"location_name_english":"Financial Centre Metro Station","line_name":"Red Metro line","station_opening_date":"2009-09-09","zone_id":6}},{"type":"Feature","id":149,"geometry":{"type":"Point","coordinates":[55.200443,25.121231]},"properties":{"location_id":149,"location_name_english":"Mall of the Emirates Metro Station","line_name":"Red Metro line","station_opening_date":"2009-09-09","zone_id":2}},{"type":"Feature","id":142,"geometry":{"type":"Point","coordinates":[55.269518,25.2014]},"properties":{"location_id":142,"location_name_english":"Burj Khalifa/ Dubai Mall Metro Station","line_name":"Red Metro line","station_opening_date":"2009-09-09","zone_id":6}},{"type":"Feature","id":159,"geometry":{"type":"Point","coordinates":[55.09104,24.977524]},"properties":{"location_id":159,"location_name_english":"UAE Exchange Metro Station","line_name":"Red Metro line","station_opening_date":"2009-09-09","zone_id":1}},{"type":"Feature","id":132,"geometry":{"type":"Point","coordinates":[55.340033,25.249497]},"properties":{"location_id":132,"location_name_english":"GGICO  Metro Station","line_name":"Red Metro line","station_opening_date":"2009-09-09","zone_id":5}},{"type":"Feature","id":179,"geometry":{"type":"Point","coordinates":[55.338952,25.218948]},"properties":{"location_id":179,"location_name_english":"Creek Metro Station","line_name":"Green Metro line","station_opening_date":"2009-09-09","zone_id":6}},{"type":"Feature","id":146,"geometry":{"type":"Point","coordinates":[55.228508,25.155727]},"properties":{"location_id":146,"location_name_english":"Noor Bank Metro Station","line_name":"Red Metro line","station_opening_date":"2009-09-09","zone_id":2}},{"type":"Feature","id":168,"geometry":{"type":"Point","coordinates":[55.320668,25.270345]},"properties":{"location_id":168,"location_name_english":"Salah Al Din Metro Station","line_name":"Green Metro line","station_opening_date":"2009-09-09","zone_id":5}},{"type":"Feature","id":152,"geometry":{"type":"Point","coordinates":[55.158026,25.088916]},"properties":{"location_id":152,"location_name_english":"Nakheel Metro Station","line_name":"Red Metro line","station_opening_date":"2009-09-09","zone_id":2}},{"type":"Feature","id":128,"geometry":{"type":"Point","coordinates":[55.391198,25.230222]},"properties":{"location_id":128,"location_name_english":"Rashidiya Metro Station","line_name":"Red Metro line","station_opening_date":"2009-09-09","zone_id":5}},{"type":"Feature","id":129,"geometry":{"type":"Point","coordinates":[55.365726,25.241059]},"properties":{"location_id":129,"location_name_english":"Emirates Metro Station","line_name":"Red Metro line","station_opening_date":"2009-09-09","zone_id":5}},{"type":"Feature","id":171,"geometry":{"type":"Point","coordinates":[55.301777,25.276195]},"properties":{"location_id":171,"location_name_english":"Gold Souq Metro Station","line_name":"Green Metro line","station_opening_date":"2009-09-09","zone_id":5}},{"type":"Feature","id":139,"geometry":{"type":"Point","coordinates":[55.28506,25.224828]},"properties":{"location_id":139,"location_name_english":"World Trade Centre Metro Station","line_name":"Red Metro line","station_opening_date":"2009-09-09","zone_id":6}},{"type":"Feature","id":133,"geometry":{"type":"Point","coordinates":[55.330077,25.254303]},"properties":{"location_id":133,"location_name_english":"Deira City Centre Metro Station","line_name":"Red Metro line","station_opening_date":"2009-09-09","zone_id":5}},{"type":"Feature","id":181,"geometry":{"type":"Point","coordinates":[55.13505,25.043438]},"properties":{"location_id":181,"location_name_english":"The Gardens Metro Station","line_name":"Red Metro line","station_opening_date":"2021-01-01","zone_id":2}}]}