{"type":"FeatureCollection","features":[{"type":"Feature","id":221,"geometry":{"type":"Point","coordinates":[55.151983,25.094499]},"properties":{"location_id":221,"location_name_english":"Media City","line_name":"Tram line","station_opening_date":"2014-11-11","zone_id":2}},{"type":"Feature","id":218,"geometry":{"type":"Point","coordinates":[55.146909,25.080803]},"properties":{"location_id":218,"location_name_english":"Dubai Marina","line_name":"Tram line","station_opening_date":"2014-11-11","zone_id":2}},{"type":"Feature","id":214,"geometry":{"type":"Point","coordinates":[55.138232,25.079737]},"properties":{"location_id":214,"location_name_english":"Jumeirah Beach Residence 1","line_name":"Tram line","station_opening_date":"2014-11-11","zone_id":2}},{"type":"Feature","id":219,"geometry":{"type":"Point","coordinates":[55.150052,25.086641]},"properties":{"location_id":219,"location_name_english":"Marina Towers","line_name":"Tram line","station_opening_date":"2014-11-11","zone_id":2}},{"type":"Feature","id":220,"geometry":{"type":"Point","coordinates":[55.148605,25.091058]},"properties":{"location_id":220,"location_name_english":"Mina Seyahi","line_name":"Tram line","station_opening_date":"2014-11-11","zone_id":2}},{"type":"Feature","id":222,"geometry":{"type":"Point","coordinates":[55.155742,25.098284]},"properties":{"location_id":222,"location_name_english":"Palm Jumeirah","line_name":"Tram line","station_opening_date":"2014-11-11","zone_id":2}},{"type":"Feature","id":224,"geometry":{"type":"Point","coordinates":[55.165147,25.108091]},"properties":{"location_id":224,"location_name_english":"Al Sufouh","line_name":"Tram line","station_opening_date":"2014-11-11","zone_id":2}},{"type":"Feature","id":217,"geometry":{"type":"Point","coordinates":[55.141974,25.0763]},"properties":{"location_id":217,"location_name_english":"Dubai Marina Mall","line_name":"Tram line","station_opening_date":"2014-11-11","zone_id":2}},{"type":"Feature","id":216,"geometry":{"type":"Point","coordinates":[55.137763,25.07148]},"properties":{"location_id":216,"location_name_english":"Jumeirah Lakes Towers","line_name":"Tram line","station_opening_date":"2014-11-11","zone_id":2}},{"type":"Feature","id":223,"geometry":{"type":"Point","coordinates":[55.16158,25.104251]},"properties":{"location_id":223,"location_name_english":"Knowledge Village","line_name":"Tram line","station_opening_date":"2014-11-11","zone_id":2}},{"type":"Feature","id":215,"geometry":{"type":"Point","coordinates":[55.132232,25.073813]},"properties":{"location_id":215,"location_name_english":"Jumeirah Beach Residence 2","line_name":"Tram line","station_opening_date":"2014-11-11","zone_id":2}}]}